[{"OBJECT_NAME":"COSMOS 2456 (730)","OBJECT_ID":"2009-070A","EPOCH":"2026-03-27T11:08:31.240608","MEAN_MOTION":2.13103415,"ECCENTRICITY":0.0006535,"INCLINATION":64.9641,"RA_OF_ASC_NODE":73.7582,"ARG_OF_PERICENTER":309.8449,"MEAN_ANOMALY":251.0676,"EPHEMERIS_TYPE":0,"CLASSIFICATION_TYPE":"U","NORAD_CAT_ID":36111,"ELEMENT_SET_NO":999,"REV_AT_EPOCH":12668,"BSTAR":0,"MEAN_MOTION_DOT":4.1e-7,"MEAN_MOTION_DDOT":0},{"OBJECT_NAME":"COSMOS 2457 (733)","OBJECT_ID":"2009-070B","EPOCH":"2026-03-26T02:13:43.966272","MEAN_MOTION":2.13100904,"ECCENTRICITY":0.00016249,"INCLINATION":64.9488,"RA_OF_ASC_NODE":73.6506,"ARG_OF_PERICENTER":196.4354,"MEAN_ANOMALY":160.5699,"EPHEMERIS_TYPE":0,"CLASSIFICATION_TYPE":"U","NORAD_CAT_ID":36112,"ELEMENT_SET_NO":999,"REV_AT_EPOCH":12665,"BSTAR":0,"MEAN_MOTION_DOT":4.0e-7,"MEAN_MOTION_DDOT":0},{"OBJECT_NAME":"COSMOS 2460 (732)","OBJECT_ID":"2010-007C","EPOCH":"2026-03-25T09:24:39.027168","MEAN_MOTION":2.13106133,"ECCENTRICITY":0.00020622,"INCLINATION":65.4675,"RA_OF_ASC_NODE":317.3041,"ARG_OF_PERICENTER":36.6538,"MEAN_ANOMALY":143.8601,"EPHEMERIS_TYPE":0,"CLASSIFICATION_TYPE":"U","NORAD_CAT_ID":36402,"ELEMENT_SET_NO":999,"REV_AT_EPOCH":12494,"BSTAR":0,"MEAN_MOTION_DOT":-3.0e-7,"MEAN_MOTION_DDOT":0},{"OBJECT_NAME":"GPS BIIF-1  (PRN 25)","OBJECT_ID":"2010-022A","EPOCH":"2026-03-28T17:12:42.892704","MEAN_MOTION":2.00558387,"ECCENTRICITY":0.01270614,"INCLINATION":54.2836,"RA_OF_ASC_NODE":211.8024,"ARG_OF_PERICENTER":66.0086,"MEAN_ANOMALY":316.4344,"EPHEMERIS_TYPE":0,"CLASSIFICATION_TYPE":"U","NORAD_CAT_ID":36585,"ELEMENT_SET_NO":999,"REV_AT_EPOCH":11598,"BSTAR":0,"MEAN_MOTION_DOT":-4.1e-7,"MEAN_MOTION_DDOT":0},{"OBJECT_NAME":"BEIDOU-2 IGSO-1 (C06)","OBJECT_ID":"2010-036A","EPOCH":"2026-03-19T22:41:52.146816","MEAN_MOTION":1.00248068,"ECCENTRICITY":0.0054955,"INCLINATION":54.2916,"RA_OF_ASC_NODE":163.7709,"ARG_OF_PERICENTER":219.8858,"MEAN_ANOMALY":238.0541,"EPHEMERIS_TYPE":0,"CLASSIFICATION_TYPE":"U","NORAD_CAT_ID":36828,"ELEMENT_SET_NO":999,"REV_AT_EPOCH":5720,"BSTAR":0,"MEAN_MOTION_DOT":-1.03e-6,"MEAN_MOTION_DDOT":0},{"OBJECT_NAME":"BEIDOU-2 G4 (C04)","OBJECT_ID":"2010-057A","EPOCH":"2026-03-28T20:40:46.684416","MEAN_MOTION":1.00270961,"ECCENTRICITY":0.00079462,"INCLINATION":3.4481,"RA_OF_ASC_NODE":69.3915,"ARG_OF_PERICENTER":213.4556,"MEAN_ANOMALY":13.6278,"EPHEMERIS_TYPE":0,"CLASSIFICATION_TYPE":"U","NORAD_CAT_ID":37210,"ELEMENT_SET_NO":999,"REV_AT_EPOCH":5648,"BSTAR":0,"MEAN_MOTION_DOT":-1.29e-6,"MEAN_MOTION_DDOT":0},{"OBJECT_NAME":"BEIDOU-2 IGSO-2 (C07)","OBJECT_ID":"2010-068A","EPOCH":"2026-03-19T22:32:24.413280","MEAN_MOTION":1.00254021,"ECCENTRICITY":0.0047798,"INCLINATION":47.7058,"RA_OF_ASC_NODE":272.9336,"ARG_OF_PERICENTER":212.7858,"MEAN_ANOMALY":135.9365,"EPHEMERIS_TYPE":0,"CLASSIFICATION_TYPE":"U","NORAD_CAT_ID":37256,"ELEMENT_SET_NO":999,"REV_AT_EPOCH":5589,"BSTAR":0,"MEAN_MOTION_DOT":-1.76e-6,"MEAN_MOTION_DDOT":0},{"OBJECT_NAME":"BEIDOU-2 IGSO-3 (C08)","OBJECT_ID":"2011-013A","EPOCH":"2026-03-26T19:21:38.699424","MEAN_MOTION":1.00287208,"ECCENTRICITY":0.00341987,"INCLINATION":62.3016,"RA_OF_ASC_NODE":40.9294,"ARG_OF_PERICENTER":190.2272,"MEAN_ANOMALY":350.7783,"EPHEMERIS_TYPE":0,"CLASSIFICATION_TYPE":"U","NORAD_CAT_ID":37384,"ELEMENT_SET_NO":999,"REV_AT_EPOCH":5483,"BSTAR":0,"MEAN_MOTION_DOT":-1.76e-6,"MEAN_MOTION_DDOT":0},{"OBJECT_NAME":"GSAT-8 (GAGAN/PRN 127)","OBJECT_ID":"2011-022A","EPOCH":"2026-03-28T21:53:32.205984","MEAN_MOTION":1.00273151,"ECCENTRICITY":0.00065795,"INCLINATION":1.9242,"RA_OF_ASC_NODE":82.7914,"ARG_OF_PERICENTER":219.7093,"MEAN_ANOMALY":267.2709,"EPHEMERIS_TYPE":0,"CLASSIFICATION_TYPE":"U","NORAD_CAT_ID":37605,"ELEMENT_SET_NO":999,"REV_AT_EPOCH":5241,"BSTAR":0,"MEAN_MOTION_DOT":6.6e-7,"MEAN_MOTION_DDOT":0},{"OBJECT_NAME":"BEIDOU-2 IGSO-4 (C09)","OBJECT_ID":"2011-038A","EPOCH":"2026-03-28T15:54:07.127136","MEAN_MOTION":1.00260433,"ECCENTRICITY":0.0156581,"INCLINATION":54.5871,"RA_OF_ASC_NODE":166.404,"ARG_OF_PERICENTER":231.4212,"MEAN_ANOMALY":120.2889,"EPHEMERIS_TYPE":0,"CLASSIFICATION_TYPE":"U","NORAD_CAT_ID":37763,"ELEMENT_SET_NO":999,"REV_AT_EPOCH":5383,"BSTAR":0,"MEAN_MOTION_DOT":-1.09e-6,"MEAN_MOTION_DDOT":0},{"OBJECT_NAME":"GSAT0101 (GALILEO-PFM)","OBJECT_ID":"2011-060A","EPOCH":"2026-03-27T07:30:55.432512","MEAN_MOTION":1.70475647,"ECCENTRICITY":0.00041176,"INCLINATION":57.0197,"RA_OF_ASC_NODE":343.984,"ARG_OF_PERICENTER":13.547,"MEAN_ANOMALY":346.4977,"EPHEMERIS_TYPE":0,"CLASSIFICATION_TYPE":"U","NORAD_CAT_ID":37846,"ELEMENT_SET_NO":999,"REV_AT_EPOCH":8972,"BSTAR":0,"MEAN_MOTION_DOT":-9.7e-7,"MEAN_MOTION_DDOT":0},{"OBJECT_NAME":"GSAT0102 (GALILEO-FM2)","OBJECT_ID":"2011-060B","EPOCH":"2026-03-28T16:54:53.054208","MEAN_MOTION":1.70475653,"ECCENTRICITY":0.0005116,"INCLINATION":57.0201,"RA_OF_ASC_NODE":343.9462,"ARG_OF_PERICENTER":21.556,"MEAN_ANOMALY":158.0911,"EPHEMERIS_TYPE":0,"CLASSIFICATION_TYPE":"U","NORAD_CAT_ID":37847,"ELEMENT_SET_NO":999,"REV_AT_EPOCH":8975,"BSTAR":0,"MEAN_MOTION_DOT":-9.9e-7,"MEAN_MOTION_DDOT":0},{"OBJECT_NAME":"COSMOS 2476 (744)","OBJECT_ID":"2011-064A","EPOCH":"2026-03-22T07:44:15.606240","MEAN_MOTION":2.13103886,"ECCENTRICITY":0.00251289,"INCLINATION":65.2205,"RA_OF_ASC_NODE":75.8028,"ARG_OF_PERICENTER":241.8014,"MEAN_ANOMALY":242.7933,"EPHEMERIS_TYPE":0,"CLASSIFICATION_TYPE":"U","NORAD_CAT_ID":37867,"ELEMENT_SET_NO":999,"REV_AT_EPOCH":11191,"BSTAR":0,"MEAN_MOTION_DOT":3.4e-7,"MEAN_MOTION_DDOT":0},{"OBJECT_NAME":"COSMOS 2477 (745)","OBJECT_ID":"2011-064B","EPOCH":"2026-03-28T06:08:40.087392","MEAN_MOTION":2.13102715,"ECCENTRICITY":0.0022004,"INCLINATION":65.2312,"RA_OF_ASC_NODE":75.6808,"ARG_OF_PERICENTER":243.8544,"MEAN_ANOMALY":293.4081,"EPHEMERIS_TYPE":0,"CLASSIFICATION_TYPE":"U","NORAD_CAT_ID":37868,"ELEMENT_SET_NO":999,"REV_AT_EPOCH":11203,"BSTAR":0,"MEAN_MOTION_DOT":4.3e-7,"MEAN_MOTION_DDOT":0},{"OBJECT_NAME":"COSMOS 2475 (743)","OBJECT_ID":"2011-064C","EPOCH":"2026-03-28T18:55:41.470752","MEAN_MOTION":2.13101469,"ECCENTRICITY":0.00279516,"INCLINATION":65.2381,"RA_OF_ASC_NODE":75.6837,"ARG_OF_PERICENTER":255.2552,"MEAN_ANOMALY":286.103,"EPHEMERIS_TYPE":0,"CLASSIFICATION_TYPE":"U","NORAD_CAT_ID":37869,"ELEMENT_SET_NO":999,"REV_AT_EPOCH":11205,"BSTAR":0,"MEAN_MOTION_DOT":4.1e-7,"MEAN_MOTION_DDOT":0},{"OBJECT_NAME":"BEIDOU-2 IGSO-5 (C10)","OBJECT_ID":"2011-073A","EPOCH":"2026-03-28T11:48:15.484896","MEAN_MOTION":1.00266601,"ECCENTRICITY":0.01093149,"INCLINATION":47.8262,"RA_OF_ASC_NODE":272.5386,"ARG_OF_PERICENTER":220.7131,"MEAN_ANOMALY":324.4481,"EPHEMERIS_TYPE":0,"CLASSIFICATION_TYPE":"U","NORAD_CAT_ID":37948,"ELEMENT_SET_NO":999,"REV_AT_EPOCH":5232,"BSTAR":0,"MEAN_MOTION_DOT":-1.56e-6,"MEAN_MOTION_DDOT":0},{"OBJECT_NAME":"LUCH 5A (SDCM/PRN 140)","OBJECT_ID":"2011-074B","EPOCH":"2026-03-28T19:00:03.552192","MEAN_MOTION":1.00269816,"ECCENTRICITY":0.00032325,"INCLINATION":8.551,"RA_OF_ASC_NODE":74.9754,"ARG_OF_PERICENTER":271.7532,"MEAN_ANOMALY":291.4452,"EPHEMERIS_TYPE":0,"CLASSIFICATION_TYPE":"U","NORAD_CAT_ID":37951,"ELEMENT_SET_NO":999,"REV_AT_EPOCH":5224,"BSTAR":0,"MEAN_MOTION_DOT":-6.3e-7,"MEAN_MOTION_DDOT":0}]
